[{"OBJECT_NAME":"STARLINK-11415 [DTC]","OBJECT_ID":"2025-008F","EPOCH":"2026-03-09T12:29:44.043360","MEAN_MOTION":15.70840467,"ECCENTRICITY":0.00013034,"INCLINATION":42.9996,"RA_OF_ASC_NODE":127.5418,"ARG_OF_PERICENTER":265.674,"MEAN_ANOMALY":94.3979,"EPHEMERIS_TYPE":0,"CLASSIFICATION_TYPE":"U","NORAD_CAT_ID":62592,"ELEMENT_SET_NO":999,"REV_AT_EPOCH":6719,"BSTAR":0.0015535877,"MEAN_MOTION_DOT":0.00203867,"MEAN_MOTION_DDOT":0},{"OBJECT_NAME":"CZ-2F R\/B","OBJECT_ID":"2026-024B","EPOCH":"2026-03-09T21:33:36.475776","MEAN_MOTION":15.34345765,"ECCENTRICITY":0.01743731,"INCLINATION":49.9895,"RA_OF_ASC_NODE":13.5528,"ARG_OF_PERICENTER":275.7155,"MEAN_ANOMALY":82.3946,"EPHEMERIS_TYPE":0,"CLASSIFICATION_TYPE":"U","NORAD_CAT_ID":67690,"ELEMENT_SET_NO":999,"REV_AT_EPOCH":472,"BSTAR":0.00037009281,"MEAN_MOTION_DOT":0.00020274,"MEAN_MOTION_DDOT":0}]
